0 FENGYUN 1C DEB
1 30441U 99025AFC 13281.95618207  .00000357  00000-0  37298-3 0  8952
2 30441 099.0974 177.8331 0190883 158.3584 331.9594 13.73703226337455
0 FENGYUN 1C DEB
1 30441U 99025AFC 13283.19369986  .00000354  00000-0  37083-3 0  8967
2 30441 099.0975 179.0113 0190951 155.0894 331.9015 13.73704375337625
0 FENGYUN 1C DEB
1 30441U 99025AFC 13285.30453675  .00000350  00000-0  36664-3 0  8983
2 30441 099.0976 181.0210 0191047 149.5231 330.7021 13.73705869337912
0 FENGYUN 1C DEB
1 30441U 99025AFC 13286.67527483  .00000419  00000-0  43069-3 0  8997
2 30441 099.0975 182.3261 0191102 145.9114 269.4701 13.73706573338101
0 FENGYUN 1C DEB
1 30441U 99025AFC 13287.69501613  .00000440  00000-0  45101-3 0  9003
2 30441 099.0974 183.2970 0191154 143.2211 272.4427 13.73707832338246
0 FENGYUN 1C DEB
1 30441U 99025AFC 13288.71625464  .00000480  00000-0  48861-3 0  9019
2 30441 099.0973 184.2694 0191196 140.5322 282.8210 13.73709172338387
0 FENGYUN 1C DEB
1 30441U 99025AFC 13289.96879094  .00000468  00000-0  47700-3 0  9025
2 30441 099.0971 185.4620 0191247 137.2410 357.0454 13.73710283338554
0 FENGYUN 1C DEB
1 30441U 99025AFC 13290.98593794  .00000464  00000-0  47295-3 0  9035
2 30441 099.0969 186.4304 0191291 134.5641 347.1961 13.73711357338697
0 FENGYUN 1C DEB
1 30441U 99025AFC 13292.51596184  .00000474  00000-0  48204-3 0  9045
2 30441 099.0967 187.8872 0191352 130.5363 353.7124 13.73712921338901
0 FENGYUN 1C DEB
1 30441U 99025AFC 13293.66730411  .00000518  00000-0  52319-3 0  9057
2 30441 099.0966 188.9834 0191397 127.5064 287.5182 13.73713961339064
0 FENGYUN 1C DEB
1 30441U 99025AFC 13294.68255985  .00000527  00000-0  53220-3 0  9061
2 30441 099.0966 189.9500 0191448 124.8318 268.3324 13.73715388339200
0 FENGYUN 1C DEB
1 30441U 99025AFC 13295.70887365  .00000519  00000-0  52463-3 0  9078
2 30441 099.0967 190.9270 0191493 122.1315 303.8334 13.73716505339348
